CALSPHERE 1             
1 00900U 64063C   22361.53684295  .00000559  00000+0  58425-3 0  9999
2 00900  90.1816  44.5246 0028314 158.0075 298.1759 13.74019741897175
CALSPHERE 2             
1 00902U 64063E   22361.60604613  .00000065  00000+0  84919-4 0  9995
2 00902  90.1958  47.7445 0016784 311.2232 203.5716 13.52731183684888
LCS 1                   
1 01361U 65034C   22361.49158856  .00000017  00000+0  11326-2 0  9991
2 01361  32.1438 306.9648 0011144 203.0368 156.9630  9.89302204 84349
TEMPSAT 1               
1 01512U 65065E   22361.60148080  .00000034  00000+0  49759-4 0  9996
2 01512  89.9224 217.1597 0069087 206.9177 179.7066 13.33464693791116
CALSPHERE 4A            
1 01520U 65065H   22361.37099719  .00000091  00000+0  15756-3 0  9995
2 01520  89.9820 129.9314 0070579  80.1507   2.4851 13.35923527793418
OPS 5712 (P/L 160)      
1 02826U 67053A   22361.54950857  .00003154  00000+0  80129-3 0  9991
2 02826  69.9264 195.7605 0002268  65.3787 294.7583 14.51631286880745
OPS 5712 (P/L 153)      
1 02874U 67053H   22361.11087421  .00000039  00000+0  66577-4 0  9996
2 02874  69.9743 312.4735 0005731  19.0593 341.0726 13.96435409829724
SURCAL 150B             
1 02909U 67053J   22361.50716714  .00006719  00000+0  12424-2 0  9993
2 02909  69.9455 175.6292 0000917 180.0265 180.0877 14.65775605891882
RIGIDSPHERE 2 (LCS 4)   
1 05398U 71067E   22361.51742037  .00000648  00000+0  21822-3 0  9994
2 05398  87.6217 329.7327 0065190 107.6668 253.1661 14.34440378691936
COSMOS 2493 (SKRL-756 1)
1 39490U 13078A   22361.56340837  .00001816  00000+0  18524-3 0  9992
2 39490  82.4179  49.0447 0017233 170.8713 189.2822 14.90037832488446
COSMOS 2494 (SKRL-756 2)
1 39491U 13078B   22361.54964539  .00001909  00000+0  18724-3 0  9997
2 39491  82.4177  42.4103 0022300 147.1647 213.0964 14.91534556489030
